[{"OBJECT_NAME":"JILIN-1 10","OBJECT_ID":"2019-005E","EPOCH":"2026-03-09T22:11:06.915840","MEAN_MOTION":15.2445874,"ECCENTRICITY":0.00069203,"INCLINATION":97.4731,"RA_OF_ASC_NODE":167.8564,"ARG_OF_PERICENTER":265.2171,"MEAN_ANOMALY":94.8276,"EPHEMERIS_TYPE":0,"CLASSIFICATION_TYPE":"U","NORAD_CAT_ID":43946,"ELEMENT_SET_NO":999,"REV_AT_EPOCH":39418,"BSTAR":0.00035023991,"MEAN_MOTION_DOT":8.535e-5,"MEAN_MOTION_DDOT":0},{"OBJECT_NAME":"SPACEMOBILE-001","OBJECT_ID":"2024-163C","EPOCH":"2026-03-09T21:48:30.828096","MEAN_MOTION":15.2107526,"ECCENTRICITY":0.00085319,"INCLINATION":52.9724,"RA_OF_ASC_NODE":45.7553,"ARG_OF_PERICENTER":183.2092,"MEAN_ANOMALY":176.8849,"EPHEMERIS_TYPE":0,"CLASSIFICATION_TYPE":"U","NORAD_CAT_ID":61047,"ELEMENT_SET_NO":999,"REV_AT_EPOCH":8265,"BSTAR":0.00077800145,"MEAN_MOTION_DOT":0.00017238,"MEAN_MOTION_DDOT":0}]
